ONEWEB-0389             
1 50469U 21132A   25165.74360120 -.00000052  00000+0 -16747-3 0  9991
2 50469  87.9071  79.0269 0001862  63.5506 296.5817 13.17649063169692
ONEWEB-0390             
1 50470U 21132B   25165.66934469 -.00000018  00000+0 -79229-4 0  9994
2 50470  87.9069  79.0485 0002256  76.3591 283.7792 13.17650014169682
ONEWEB-0391             
1 50471U 21132C   25165.67102660 -.00000040  00000+0 -13522-3 0  9994
2 50471  87.9078  79.0608 0002258  53.8327 306.3014 13.17649777169682
ONEWEB-0392             
1 50472U 21132D   25165.77733934 -.00000002  00000+0 -37283-4 0  9999
2 50472  87.9065  78.9876 0001937  64.5344 295.5988 13.17649940169732
ONEWEB-0393             
1 50473U 21132E   25165.75047342 -.00000014  00000+0 -70209-4 0  9997
2 50473  87.9075  79.0065 0001968  71.5211 288.6134 13.17650427169728
ONEWEB-0394             
1 50474U 21132F   25165.93148577  .00000071  00000+0  14788-3 0  9990
2 50474  87.9147  48.4203 0001759  76.3850 283.7478 13.18687994173196
ONEWEB-0395             
1 50475U 21132G   25165.79809370  .00000427  00000+0  11684-2 0  9996
2 50475  87.8841  94.3155 0002169  70.8395 289.2967 13.11416518167565
ONEWEB-0396             
1 50476U 21132H   25165.92515765  .00000143  00000+0  32924-3 0  9990
2 50476  87.9148  48.4347 0001776  76.5134 283.6196 13.18688958173236
ONEWEB-0397             
1 50477U 21132J   25165.93938267 -.00000031  00000+0 -11135-3 0  9997
2 50477  87.9143  48.4327 0001642  80.8922 279.2396 13.18688057173216
ONEWEB-0398             
1 50478U 21132K   25165.76587440 -.00000202  00000+0 -60526-3 0  9990
2 50478  87.8838  94.2863 0002461  77.6996 282.4407 13.11418728167453
ONEWEB-0399             
1 50479U 21132L   25165.75230131 -.00000734  00000+0 -21081-2 0  9994
2 50479  87.8839  94.3125 0001683  73.6693 286.4620 13.11416682167449
ONEWEB-0400             
1 50480U 21132M   25165.69120720  .00000044  00000+0  77856-4 0  9996
2 50480  87.9149  48.4736 0002045  79.5509 280.5853 13.18684688173178
ONEWEB-0401             
1 50481U 21132N   25165.65802028  .00000042  00000+0  73848-4 0  9996
2 50481  87.9153  48.4741 0001643  84.1415 275.9904 13.18686776173176
ONEWEB-0402             
1 50482U 21132P   25165.92675448  .00000077  00000+0  16373-3 0  9998
2 50482  87.9143  48.4159 0001381  95.1066 265.0224 13.18688005173231
ONEWEB-0403             
1 50483U 21132Q   25165.95045331 -.00000012  00000+0 -63321-4 0  9991
2 50483  87.9148  48.4278 0001855  75.8125 284.3213 13.18688121173192
ONEWEB-0404             
1 50484U 21132R   25165.80995178 -.00000061  00000+0 -20675-3 0  9997
2 50484  87.8845  94.3017 0001932  66.3755 293.7576 13.11413160167547
ONEWEB-0405             
1 50485U 21132S   25165.66274553 -.00000024  00000+0 -92925-4 0  9996
2 50485  87.9144  48.4731 0001537  82.6020 277.5287 13.18688103173556
ONEWEB-0406             
1 50486U 21132T   25165.65169365 -.00000009  00000+0 -54520-4 0  9992
2 50486  87.9148  48.4963 0002217  67.2014 292.9352 13.18686988173188
ONEWEB-0407             
1 50487U 21132U   25165.94886132  .00000018  00000+0  12246-4 0  9990
2 50487  87.9145  48.4229 0001702  79.9610 280.1714 13.18688416173168
ONEWEB-0409             
1 50488U 21132V   25165.80826065  .00000039  00000+0  73367-4 0  9999
2 50488  87.8838  94.2672 0002162  70.2928 289.8433 13.11413684167438
ONEWEB-0412             
1 50489U 21132W   25165.93779847 -.00000053  00000+0 -16766-3 0  9996
2 50489  87.9143  48.4392 0001484  87.5624 272.5678 13.18685155173257
ONEWEB-0413             
1 50490U 21132X   25165.63903992  .00000072  00000+0  15056-3 0  9995
2 50490  87.9149  48.5126 0001653  89.0706 271.0615 13.18688061173150
ONEWEB-0414             
1 50491U 21132Y   25165.92832578  .00000031  00000+0  45068-4 0  9991
2 50491  87.9140  48.4178 0001578  79.9822 280.1488 13.18687028173220
ONEWEB-0417             
1 50492U 21132Z   25165.70859130 -.00000012  00000+0 -62918-4 0  9995
2 50492  87.9149  48.4904 0001849  74.5163 285.6173 13.18687971173179
ONEWEB-0418             
1 50493U 21132AA  25165.94557153  .00000047  00000+0  87594-4 0  9995
2 50493  87.9140  48.4311 0001881  69.2229 290.9104 13.18687886173261
ONEWEB-0419             
1 50494U 21132AB  25165.65959681  .00000053  00000+0  10078-3 0  9995
2 50494  87.9139  48.4925 0002164  74.9075 285.2296 13.18687588173143
ONEWEB-0420             
1 50495U 21132AC  25165.92990388  .00000084  00000+0  18068-3 0  9996
2 50495  87.9139  48.4475 0001935  92.5353 267.6000 13.18685574173177
ONEWEB-0421             
1 50496U 21132AD  25165.92356919 -.00000244  00000+0 -65105-3 0  9997
2 50496  87.9148  48.4410 0001528  80.1914 279.9390 13.18689179173219
ONEWEB-0424             
1 50497U 21132AE  25165.95835593  .00000012  00000+0 -23700-5 0  9990
2 50497  87.9149  48.4260 0002300  78.0654 282.0736 13.18687950173247
ONEWEB-0426             
1 50498U 21132AF  25165.92041696  .00000113  00000+0  25368-3 0  9992
2 50498  87.9137  48.4335 0001364  59.7179 300.4088 13.18687922173182
ONEWEB-0427             
1 50499U 21132AG  25165.95678113  .00000020  00000+0  18009-4 0  9998
2 50499  87.9143  48.4111 0001902  74.4356 285.6986 13.18687136173213
ONEWEB-0429             
1 50500U 21132AH  25165.64061408  .00000020  00000+0  17336-4 0  9992
2 50500  87.9149  48.5014 0001914  85.3547 274.7804 13.18687886173143
ONEWEB-0430             
1 50501U 21132AJ  25165.93307193  .00000086  00000+0  18473-3 0  9993
2 50501  87.9144  48.4370 0002160  82.9919 277.1459 13.18686641173223
ONEWEB-0432             
1 50502U 21132AK  25165.66119198 -.00000048  00000+0 -15365-3 0  9997
2 50502  87.9141  48.4778 0002552  62.8746 297.2646 13.18686032173149
ONEWEB-0440             
1 50503U 21132AL  25165.95202972 -.00000018  00000+0 -79643-4 0  9990
2 50503  87.9149  48.4217 0001557  91.3000 268.8310 13.18687161173179
ONEWEB-0450             
1 50504U 21132AM  25165.64234394  .00000005  00000+0 -21052-4 0  9996
2 50504  87.9147  48.5110 0002031  89.3385 270.7979 13.18687360173165
ONEWEB-0410             
1 51622U 22012A   25165.76215085 -.00000009  00000+0 -55954-4 0  9998
2 51622  87.9069  78.9925 0001959  35.4283 324.6979 13.17650110165317
ONEWEB-0411             
1 51623U 22012B   25165.80978312 -.00000197  00000+0 -59937-3 0  9995
2 51623  87.8831 109.5237 0002649  82.9239 277.2190 13.10376773161177
ONEWEB-0415             
1 51624U 22012C   25165.80647377 -.00000316  00000+0 -94176-3 0  9997
2 51624  87.8823 109.5296 0002398  81.5862 278.5537 13.10376802161174
ONEWEB-0416             
1 51625U 22012D   25165.81809403  .00000238  00000+0  64519-3 0  9998
2 51625  87.8831 109.5432 0002097  78.6341 281.5022 13.10375374161212
ONEWEB-0422             
1 51626U 22012E   25165.77228221 -.00000050  00000+0 -16318-3 0  9995
2 51626  87.9070  78.9978 0001880 100.7100 259.4243 13.17649927166705
ONEWEB-0423             
1 51627U 22012F   25165.76552628 -.00000002  00000+0 -38089-4 0  9993
2 51627  87.9073  79.0057 0001858  78.3471 281.7869 13.17650187165313
ONEWEB-0425             
1 51628U 22012G   25165.36990494  .00000727  00000+0  20453-2 0  9993
2 51628  87.8825 109.6034 0001831  72.2364 287.8963 13.10376464161154
ONEWEB-0428             
1 51629U 22012H   25165.80812280 -.00000287  00000+0 -85700-3 0  9999
2 51629  87.8832 109.5374 0002113  85.4644 274.6724 13.10376050161172
ONEWEB-0431             
1 51630U 22012J   25165.77810981 -.00000168  00000+0 -51657-3 0  9995
2 51630  87.8813 109.5169 0002545  90.0259 270.1160 13.10370390161220
ONEWEB-0434             
1 51631U 22012K   25165.75502239  .00000686  00000+0  19291-2 0  9998
2 51631  87.8826 109.5607 0001605  65.1821 294.9473 13.10372752161209
ONEWEB-0435             
1 51632U 22012L   25165.76331349  .00000524  00000+0  14639-2 0  9994
2 51632  87.8824 109.5520 0002020  93.3582 266.7777 13.10374049161194
ONEWEB-0436             
1 51633U 22012M   25165.75708644  .00000026  00000+0  32630-4 0  9990
2 51633  87.9069  78.9963 0002046  84.2740 275.8624 13.17651329165293
ONEWEB-0438             
1 51634U 22012N   25165.36493069  .00000604  00000+0  16929-2 0  9993
2 51634  87.8829 109.6316 0001947  75.9135 284.2208 13.10375694161171
ONEWEB-0439             
1 51635U 22012P   25165.75004493  .00000568  00000+0  15914-2 0  9998
2 51635  87.8828 109.5427 0001985  81.6583 278.4770 13.10373982161207
ONEWEB-0442             
1 51636U 22012Q   25165.74949217  .00000021  00000+0  21385-4 0  9995
2 51636  87.9079  79.0474 0002050  59.1431 300.9902 13.17648727165285
ONEWEB-0443             
1 51637U 22012R   25165.76889173  .00000019  00000+0  15912-4 0  9998
2 51637  87.9074  79.0556 0001629  74.7517 285.3795 13.17648927165335
ONEWEB-0444             
1 51638U 22012S   25165.81642996  .00000162  00000+0  42795-3 0  9992
2 51638  87.8826 109.5327 0001935  83.7448 276.3899 13.10376411161226
ONEWEB-0445             
1 51639U 22012T   25165.76166044  .00000556  00000+0  15574-2 0  9993
2 51639  87.8815 109.4991 0002178  76.8069 283.3301 13.10372123161225
ONEWEB-0446             
1 51640U 22012U   25165.81476712  .00000150  00000+0  39423-3 0  9997
2 51640  87.8831 109.5459 0002284  77.8946 282.2437 13.10377164161215
ONEWEB-0448             
1 51641U 22012V   25165.81974928  .00000332  00000+0  91475-3 0  9997
2 51641  87.8830 109.5446 0001988  79.9986 280.1366 13.10374930161180
ONEWEB-0449             
1 51642U 22012W   25165.74837873  .00000637  00000+0  17874-2 0  9995
2 51642  87.8823 109.5337 0001699  68.7571 291.3738 13.10375463161186
ONEWEB-0451             
1 51643U 22012X   25165.75371603  .00000053  00000+0  10381-3 0  9990
2 51643  87.9067  78.9873 0001860  73.0282 287.1053 13.17650729165275
ONEWEB-0452             
1 51644U 22012Y   25165.75202828  .00000034  00000+0  55578-4 0  9990
2 51644  87.9073  79.0494 0001643  72.4929 287.6382 13.17649404165283
